{
  "links" : {
    "next" : "https://api.nasa.gov/neo/rest/v1/feed?start_date=2000-09-16&end_date=2000-09-16&detailed=true&api_key=t0TVs3DtDT2H8Oy2Zy8m2eVrNsAVKAexjcZXUckd",
    "prev" : "https://api.nasa.gov/neo/rest/v1/feed?start_date=2000-09-14&end_date=2000-09-14&detailed=true&api_key=t0TVs3DtDT2H8Oy2Zy8m2eVrNsAVKAexjcZXUckd",
    "self" : "https://api.nasa.gov/neo/rest/v1/feed?start_date=2000-09-15&end_date=2000-09-15&detailed=true&api_key=t0TVs3DtDT2H8Oy2Zy8m2eVrNsAVKAexjcZXUckd"
  },
  "element_count" : 4,
  "near_earth_objects" : {
    "2000-09-15" : [ {
      "links" : {
        "self" : "https://api.nasa.gov/neo/rest/v1/neo/2423022?api_key=t0TVs3DtDT2H8Oy2Zy8m2eVrNsAVKAexjcZXUckd"
      },
      "neo_reference_id" : "2423022",
      "name" : "423022 (2003 TJ2)",
      "nasa_jpl_url" : "http://ssd.jpl.nasa.gov/sbdb.cgi?sstr=2423022",
      "absolute_magnitude_h" : 18.9,
      "estimated_diameter" : {
        "kilometers" : {
          "estimated_diameter_min" : 0.4411182,
          "estimated_diameter_max" : 0.9863702813
        },
        "meters" : {
          "estimated_diameter_min" : 441.1181999969,
          "estimated_diameter_max" : 986.3702813054
        },
        "miles" : {
          "estimated_diameter_min" : 0.2740980571,
          "estimated_diameter_max" : 0.6129018881
        },
        "feet" : {
          "estimated_diameter_min" : 1447.2382352778,
          "estimated_diameter_max" : 3236.1230737181
        }
      },
      "is_potentially_hazardous_asteroid" : false,
      "close_approach_data" : [ {
        "close_approach_date" : "2000-09-15",
        "epoch_date_close_approach" : 969001200000,
        "relative_velocity" : {
          "kilometers_per_second" : "15.4840027728",
          "kilometers_per_hour" : "55742.4099820231",
          "miles_per_hour" : "34636.165802441"
        },
        "miss_distance" : {
          "astronomical" : "0.1307325086",
          "lunar" : "50.8549461365",
          "kilometers" : "19557304",
          "miles" : "12152346"
        },
        "orbiting_body" : "Earth"
      } ],
      "orbital_data" : {
        "orbit_id" : "34",
        "orbit_determination_date" : "2017-04-06 09:21:06",
        "orbit_uncertainty" : "0",
        "minimum_orbit_intersection" : ".111753",
        "jupiter_tisserand_invariant" : "4.793",
        "epoch_osculation" : "2458000.5",
        "eccentricity" : ".4741125350837394",
        "semi_major_axis" : "1.318198606882952",
        "inclination" : "17.4455790270272",
        "ascending_node_longitude" : "341.4955551925125",
        "orbital_period" : "552.8021193241664",
        "perihelion_distance" : ".6932241236298218",
        "perihelion_argument" : "298.9652098425007",
        "aphelion_distance" : "1.943173090136082",
        "perihelion_time" : "2457836.958924617873",
        "mean_anomaly" : "106.5024627791655",
        "mean_motion" : ".6512276046266275",
        "equinox" : "J2000"
      }
    }, {
      "links" : {
        "self" : "https://api.nasa.gov/neo/rest/v1/neo/3466069?api_key=t0TVs3DtDT2H8Oy2Zy8m2eVrNsAVKAexjcZXUckd"
      },
      "neo_reference_id" : "3466069",
      "name" : "(2009 QJ9)",
      "nasa_jpl_url" : "http://ssd.jpl.nasa.gov/sbdb.cgi?sstr=3466069",
      "absolute_magnitude_h" : 19.4,
      "estimated_diameter" : {
        "kilometers" : {
          "estimated_diameter_min" : 0.3503926411,
          "estimated_diameter_max" : 0.7835017643
        },
        "meters" : {
          "estimated_diameter_min" : 350.3926411083,
          "estimated_diameter_max" : 783.5017643338
        },
        "miles" : {
          "estimated_diameter_min" : 0.2177238258,
          "estimated_diameter_max" : 0.4868452748
        },
        "feet" : {
          "estimated_diameter_min" : 1149.5821926537,
          "estimated_diameter_max" : 2570.543928497
        }
      },
      "is_potentially_hazardous_asteroid" : false,
      "close_approach_data" : [ {
        "close_approach_date" : "2000-09-15",
        "epoch_date_close_approach" : 969001200000,
        "relative_velocity" : {
          "kilometers_per_second" : "13.0102280548",
          "kilometers_per_hour" : "46836.8209972674",
          "miles_per_hour" : "29102.5791357743"
        },
        "miss_distance" : {
          "astronomical" : "0.1468913046",
          "lunar" : "57.1407203674",
          "kilometers" : "21974628",
          "miles" : "13654400"
        },
        "orbiting_body" : "Earth"
      } ],
      "orbital_data" : {
        "orbit_id" : "30",
        "orbit_determination_date" : "2017-04-06 09:00:11",
        "orbit_uncertainty" : "5",
        "minimum_orbit_intersection" : ".0506398",
        "jupiter_tisserand_invariant" : "2.983",
        "epoch_osculation" : "2458000.5",
        "eccentricity" : ".6200638896652969",
        "semi_major_axis" : "2.721336694541438",
        "inclination" : "19.27563373621656",
        "ascending_node_longitude" : "157.8666031421508",
        "orbital_period" : "1639.728116016453",
        "perihelion_distance" : "1.033934078635172",
        "perihelion_argument" : "202.0514416625952",
        "aphelion_distance" : "4.408739310447704",
        "perihelion_time" : "2458391.735659955858",
        "mean_anomaly" : "274.1047615099285",
        "mean_motion" : ".2195485925279992",
        "equinox" : "J2000"
      }
    }, {
      "links" : {
        "self" : "https://api.nasa.gov/neo/rest/v1/neo/3558385?api_key=t0TVs3DtDT2H8Oy2Zy8m2eVrNsAVKAexjcZXUckd"
      },
      "neo_reference_id" : "3558385",
      "name" : "(2011 EE17)",
      "nasa_jpl_url" : "http://ssd.jpl.nasa.gov/sbdb.cgi?sstr=3558385",
      "absolute_magnitude_h" : 22.6,
      "estimated_diameter" : {
        "kilometers" : {
          "estimated_diameter_min" : 0.0802703167,
          "estimated_diameter_max" : 0.1794898848
        },
        "meters" : {
          "estimated_diameter_min" : 80.2703167283,
          "estimated_diameter_max" : 179.4898847799
        },
        "miles" : {
          "estimated_diameter_min" : 0.049877647,
          "estimated_diameter_max" : 0.1115298092
        },
        "feet" : {
          "estimated_diameter_min" : 263.3540659348,
          "estimated_diameter_max" : 588.8775935812
        }
      },
      "is_potentially_hazardous_asteroid" : false,
      "close_approach_data" : [ {
        "close_approach_date" : "2000-09-15",
        "epoch_date_close_approach" : 969001200000,
        "relative_velocity" : {
          "kilometers_per_second" : "16.490921236",
          "kilometers_per_hour" : "59367.3164496684",
          "miles_per_hour" : "36888.5417128509"
        },
        "miss_distance" : {
          "astronomical" : "0.2156194338",
          "lunar" : "83.8759613037",
          "kilometers" : "32256208",
          "miles" : "20043078"
        },
        "orbiting_body" : "Earth"
      } ],
      "orbital_data" : {
        "orbit_id" : "12",
        "orbit_determination_date" : "2017-04-06 08:54:14",
        "orbit_uncertainty" : "7",
        "minimum_orbit_intersection" : ".0324426",
        "jupiter_tisserand_invariant" : "5.444",
        "epoch_osculation" : "2458000.5",
        "eccentricity" : ".2387453005905865",
        "semi_major_axis" : "1.135425142083463",
        "inclination" : "18.37630450942873",
        "ascending_node_longitude" : "168.318708595025",
        "orbital_period" : "441.9123989533288",
        "perihelion_distance" : ".8643477252386371",
        "perihelion_argument" : "95.19957463257437",
        "aphelion_distance" : "1.406502558928288",
        "perihelion_time" : "2457926.040808627291",
        "mean_anomaly" : "60.6575170953876",
        "mean_motion" : ".8146410936933686",
        "equinox" : "J2000"
      }
    }, {
      "links" : {
        "self" : "https://api.nasa.gov/neo/rest/v1/neo/3773058?api_key=t0TVs3DtDT2H8Oy2Zy8m2eVrNsAVKAexjcZXUckd"
      },
      "neo_reference_id" : "3773058",
      "name" : "(2017 FU102)",
      "nasa_jpl_url" : "http://ssd.jpl.nasa.gov/sbdb.cgi?sstr=3773058",
      "absolute_magnitude_h" : 28.665,
      "estimated_diameter" : {
        "kilometers" : {
          "estimated_diameter_min" : 0.004915356,
          "estimated_diameter_max" : 0.0109910701
        },
        "meters" : {
          "estimated_diameter_min" : 4.9153559892,
          "estimated_diameter_max" : 10.9910701256
        },
        "miles" : {
          "estimated_diameter_min" : 0.0030542597,
          "estimated_diameter_max" : 0.0068295322
        },
        "feet" : {
          "estimated_diameter_min" : 16.1264965438,
          "estimated_diameter_max" : 36.0599425107
        }
      },
      "is_potentially_hazardous_asteroid" : false,
      "close_approach_data" : [ {
        "close_approach_date" : "2000-09-15",
        "epoch_date_close_approach" : 969001200000,
        "relative_velocity" : {
          "kilometers_per_second" : "7.362826439",
          "kilometers_per_hour" : "26506.1751803376",
          "miles_per_hour" : "16469.9064613603"
        },
        "miss_distance" : {
          "astronomical" : "0.497428461",
          "lunar" : "193.4996643066",
          "kilometers" : "74414240",
          "miles" : "46238864"
        },
        "orbiting_body" : "Earth"
      } ],
      "orbital_data" : {
        "orbit_id" : "5",
        "orbit_determination_date" : "2017-07-19 16:35:34",
        "orbit_uncertainty" : "4",
        "minimum_orbit_intersection" : ".000802905",
        "jupiter_tisserand_invariant" : "4.992",
        "epoch_osculation" : "2458000.5",
        "eccentricity" : ".2870215746772456",
        "semi_major_axis" : "1.287930827658888",
        "inclination" : "3.005537548195311",
        "ascending_node_longitude" : "12.69635245594941",
        "orbital_period" : "533.8721114174923",
        "perihelion_distance" : ".9182668934288655",
        "perihelion_argument" : "231.1643097788973",
        "aphelion_distance" : "1.65759476188891",
        "perihelion_time" : "2457888.692980322947",
        "mean_anomaly" : "75.39357502093405",
        "mean_motion" : ".6743187971444291",
        "equinox" : "J2000"
      }
    } ]
  }
}